{
  "type": "FeatureCollection",
  "features": [
    {
      "type": "Feature",
      "properties": {
        "norad_id": 50032,
        "name": "COSMOS 1408 DEB",
        "group": "cosmos-1408-debris",
        "lat": 3.1255843972045714,
        "lon": -118.79064896543295,
        "alt_km": 424.79044363622506,
        "timestamp": "2025-12-09T16:56:36.845107+00:00",
        "meta_object_name": "COSMOS 1408 DEB",
        "meta_object_id": "1982-092RU",
        "meta_epoch": "2025-12-09T11:31:08.664096",
        "meta_mean_motion": 15.45642555,
        "meta_eccentricity": 0.0014978,
        "meta_inclination": 82.5641,
        "meta_ra_of_asc_node": 61.8496,
        "meta_arg_of_pericenter": 221.1109,
        "meta_mean_anomaly": 138.9013,
        "meta_ephemeris_type": 0,
        "meta_classification_type": "U",
        "meta_norad_cat_id": 50032,
        "meta_element_set_no": 999,
        "meta_rev_at_epoch": 22553,
        "meta_bstar": 0.00015801,
        "meta_mean_motion_dot": 7.683e-05,
        "meta_mean_motion_ddot": 0,
        "tle_line1": "1 50032U 82092RU  25343.47996139  .00007683  00000+0  15801-3 0  9997",
        "tle_line2": "2 50032  82.5641  61.8496 0014978 221.1109 138.9013 15.45642555225531"
      },
      "geometry": {
        "type": "Point",
        "coordinates": [
          -118.79064896543295,
          3.1255843972045714
        ]
      }
    },
    {
      "type": "Feature",
      "properties": {
        "norad_id": 50058,
        "name": "COSMOS 1408 DEB",
        "group": "cosmos-1408-debris",
        "lat": 0.5144825698253711,
        "lon": -107.55087814991273,
        "alt_km": 375.9262370032711,
        "timestamp": "2025-12-09T16:56:36.845128+00:00",
        "meta_object_name": "COSMOS 1408 DEB",
        "meta_object_id": "1982-092SW",
        "meta_epoch": "2025-12-09T06:57:57.674304",
        "meta_mean_motion": 15.63783016,
        "meta_eccentricity": 0.0016385,
        "meta_inclination": 82.6128,
        "meta_ra_of_asc_node": 72.9508,
        "meta_arg_of_pericenter": 110.9292,
        "meta_mean_anomaly": 249.3723,
        "meta_ephemeris_type": 0,
        "meta_classification_type": "U",
        "meta_norad_cat_id": 50058,
        "meta_element_set_no": 999,
        "meta_rev_at_epoch": 22750,
        "meta_bstar": 0.0004022,
        "meta_mean_motion_dot": 0.00037979,
        "meta_mean_motion_ddot": 0,
        "tle_line1": "1 50058U 82092SW  25343.29025086  .00037979  00000+0  40220-3 0  9993",
        "tle_line2": "2 50058  82.6128  72.9508 0016385 110.9292 249.3723 15.63783016227501"
      },
      "geometry": {
        "type": "Point",
        "coordinates": [
          -107.55087814991273,
          0.5144825698253711
        ]
      }
    },
    {
      "type": "Feature",
      "properties": {
        "norad_id": 50404,
        "name": "COSMOS 1408 DEB",
        "group": "cosmos-1408-debris",
        "lat": 60.90091833802782,
        "lon": 23.886997401757508,
        "alt_km": 521.5033450002629,
        "timestamp": "2025-12-09T16:56:36.845141+00:00",
        "meta_object_name": "COSMOS 1408 DEB",
        "meta_object_id": "1982-092ADS",
        "meta_epoch": "2025-12-09T02:07:31.133856",
        "meta_mean_motion": 15.1299152,
        "meta_eccentricity": 0.01734954,
        "meta_inclination": 82.2038,
        "meta_ra_of_asc_node": 218.7693,
        "meta_arg_of_pericenter": 211.4724,
        "meta_mean_anomaly": 147.6039,
        "meta_ephemeris_type": 0,
        "meta_classification_type": "U",
        "meta_norad_cat_id": 50404,
        "meta_element_set_no": 999,
        "meta_rev_at_epoch": 21138,
        "meta_bstar": 0.0031720673,
        "meta_mean_motion_dot": 0.00081978,
        "meta_mean_motion_ddot": 0,
        "tle_line1": "1 50404U 82092ADS 25343.08855479  .00081978  00000+0  31721-2 0  9995",
        "tle_line2": "2 50404  82.2038 218.7693 0173495 211.4724 147.6039 15.12991520211384"
      },
      "geometry": {
        "type": "Point",
        "coordinates": [
          23.886997401757508,
          60.90091833802782
        ]
      }
    },
    {
      "type": "Feature",
      "properties": {
        "norad_id": 50621,
        "name": "COSMOS 1408 DEB",
        "group": "cosmos-1408-debris",
        "lat": -80.00548598210139,
        "lon": 29.558985000330967,
        "alt_km": 413.03001189832594,
        "timestamp": "2025-12-09T16:56:36.845152+00:00",
        "meta_object_name": "COSMOS 1408 DEB",
        "meta_object_id": "1982-092ALR",
        "meta_epoch": "2025-12-09T06:30:05.287392",
        "meta_mean_motion": 15.56380529,
        "meta_eccentricity": 0.0028746,
        "meta_inclination": 82.5697,
        "meta_ra_of_asc_node": 77.7916,
        "meta_arg_of_pericenter": 165.1376,
        "meta_mean_anomaly": 195.0731,
        "meta_ephemeris_type": 0,
        "meta_classification_type": "U",
        "meta_norad_cat_id": 50621,
        "meta_element_set_no": 999,
        "meta_rev_at_epoch": 22196,
        "meta_bstar": 0.00049841,
        "meta_mean_motion_dot": 0.00035943,
        "meta_mean_motion_ddot": 0,
        "tle_line1": "1 50621U 82092ALR 25343.27089453  .00035943  00000+0  49841-3 0  9992",
        "tle_line2": "2 50621  82.5697  77.7916 0028746 165.1376 195.0731 15.56380529221966"
      },
      "geometry": {
        "type": "Point",
        "coordinates": [
          29.558985000330967,
          -80.00548598210139
        ]
      }
    }
  ]
}